STARLINK-30806          
1 58180U 23167F   25255.72477782  .00000173  00000+0  27882-4 0  9995
2 58180  43.0047  33.0252 0002014 279.8150  80.2465 15.02535672104181
STARLINK-30821          
1 58181U 23167G   25256.10588834 -.00000499  00000+0 -21837-4 0  9997
2 58181  43.0034  30.7266 0002538 278.5596  81.4959 15.02532791104245
STARLINK-30778          
1 58182U 23167H   25256.10255577  .00000186  00000+0  28809-4 0  9990
2 58182  43.0048  30.7038 0001159 272.6453  87.4257 15.02536972104245
STARLINK-30809          
1 58183U 23167J   25256.07603665  .00000974  00000+0  87194-4 0  9999
2 58183  43.0037  31.3677 0001359 267.0015  93.0672 15.02538531104230
STARLINK-30801          
1 58184U 23167K   25256.07270676  .00001805  00000+0  14865-3 0  9990
2 58184  43.0070  31.3416 0001483 268.6342  91.4331 15.02532041104231
STARLINK-30793          
1 58185U 23167L   25256.09922184  .00000581  00000+0  58078-4 0  9996
2 58185  43.0045  30.6791 0001516 270.4453  89.6216 15.02539457104243
STARLINK-30755          
1 58186U 23167M   25256.06382082 -.00000592  00000+0 -28725-4 0  9991
2 58186  43.0061  31.2750 0001611 279.2131  80.8529 15.02548531104232
STARLINK-30760          
1 58187U 23167N   25256.09588936 -.00005312  00000+0 -37817-3 0  9997
2 58187  43.0045  30.6529 0001609 273.6597  86.4062 15.02562233104243
STARLINK-30826          
1 58188U 23167P   25256.06272355  .00004419  00000+0  34222-3 0  9992
2 58188  43.0058  31.2699 0001745 272.4133  87.6509 15.02511318104233
STARLINK-30796          
1 58189U 23167Q   25256.06604193  .00000908  00000+0  82280-4 0  9999
2 58189  43.0048  31.2894 0001432 265.2787  94.7891 15.02537774104235
STARLINK-30820          
1 58190U 23167R   25256.06937357  .00000633  00000+0  61952-4 0  9990
2 58190  43.0044  31.3146 0001274 266.9123  93.1573 15.02531958104238
STARLINK-30785          
1 58191U 23167S   25255.72366528  .00000615  00000+0  60624-4 0  9994
2 58191  43.0065  33.0252 0001485 270.9309  89.1363 15.02536952104189
STARLINK-30807          
1 58192U 23167T   25256.05938414 -.00000019  00000+0  13703-4 0  9996
2 58192  43.0054  31.2420 0001453 271.8654  88.2022 15.02537398104236
STARLINK-30822          
1 58193U 23167U   25255.65385831 -.00000260  00000+0 -41910-5 0  9992
2 58193  43.0043  33.3575 0001645 270.5575  89.5079 15.02538336104172
STARLINK-30830          
1 58194U 23167V   25255.64942091 -.00000642  00000+0 -32475-4 0  9998
2 58194  43.0045  33.3087 0001384 272.3343  87.7341 15.02536703104174
STARLINK-30827          
1 58195U 23167W   25255.64720069  .00001633  00000+0  13589-3 0  9991
2 58195  43.0040  33.3103 0001336 273.9843  86.0846 15.02543145104178
