[{"OBJECT_NAME":"STARLINK-30806","OBJECT_ID":"2023-167F","EPOCH":"2025-09-12T17:23:40.803648","MEAN_MOTION":15.02535672,"ECCENTRICITY":0.0002014,"INCLINATION":43.0047,"RA_OF_ASC_NODE":33.0252,"ARG_OF_PERICENTER":279.815,"MEAN_ANOMALY":80.2465,"EPHEMERIS_TYPE":0,"CLASSIFICATION_TYPE":"U","NORAD_CAT_ID":58180,"ELEMENT_SET_NO":999,"REV_AT_EPOCH":10418,"BSTAR":2.7881686e-5,"MEAN_MOTION_DOT":1.73e-6,"MEAN_MOTION_DDOT":0},{"OBJECT_NAME":"STARLINK-30821","OBJECT_ID":"2023-167G","EPOCH":"2025-09-13T02:32:28.752576","MEAN_MOTION":15.02532791,"ECCENTRICITY":0.00025388,"INCLINATION":43.0034,"RA_OF_ASC_NODE":30.7266,"ARG_OF_PERICENTER":278.5596,"MEAN_ANOMALY":81.4959,"EPHEMERIS_TYPE":0,"CLASSIFICATION_TYPE":"U","NORAD_CAT_ID":58181,"ELEMENT_SET_NO":999,"REV_AT_EPOCH":10424,"BSTAR":-2.1836649e-5,"MEAN_MOTION_DOT":-4.99e-6,"MEAN_MOTION_DDOT":0},{"OBJECT_NAME":"STARLINK-30778","OBJECT_ID":"2023-167H","EPOCH":"2025-09-13T02:27:40.818528","MEAN_MOTION":15.02536972,"ECCENTRICITY":0.00011595,"INCLINATION":43.0048,"RA_OF_ASC_NODE":30.7038,"ARG_OF_PERICENTER":272.6453,"MEAN_ANOMALY":87.4257,"EPHEMERIS_TYPE":0,"CLASSIFICATION_TYPE":"U","NORAD_CAT_ID":58182,"ELEMENT_SET_NO":999,"REV_AT_EPOCH":10424,"BSTAR":2.8809126e-5,"MEAN_MOTION_DOT":1.86e-6,"MEAN_MOTION_DDOT":0},{"OBJECT_NAME":"STARLINK-30809","OBJECT_ID":"2023-167J","EPOCH":"2025-09-13T01:49:29.566560","MEAN_MOTION":15.02538531,"ECCENTRICITY":0.00013593,"INCLINATION":43.0037,"RA_OF_ASC_NODE":31.3677,"ARG_OF_PERICENTER":267.0015,"MEAN_ANOMALY":93.0672,"EPHEMERIS_TYPE":0,"CLASSIFICATION_TYPE":"U","NORAD_CAT_ID":58183,"ELEMENT_SET_NO":999,"REV_AT_EPOCH":10423,"BSTAR":8.7194294e-5,"MEAN_MOTION_DOT":9.74e-6,"MEAN_MOTION_DDOT":0},{"OBJECT_NAME":"STARLINK-30801","OBJECT_ID":"2023-167K","EPOCH":"2025-09-13T01:44:41.864064","MEAN_MOTION":15.02532041,"ECCENTRICITY":0.00014837,"INCLINATION":43.007,"RA_OF_ASC_NODE":31.3416,"ARG_OF_PERICENTER":268.6342,"MEAN_ANOMALY":91.4331,"EPHEMERIS_TYPE":0,"CLASSIFICATION_TYPE":"U","NORAD_CAT_ID":58184,"ELEMENT_SET_NO":999,"REV_AT_EPOCH":10423,"BSTAR":0.00014865404,"MEAN_MOTION_DOT":1.805e-5,"MEAN_MOTION_DDOT":0},{"OBJECT_NAME":"STARLINK-30793","OBJECT_ID":"2023-167L","EPOCH":"2025-09-13T02:22:52.766976","MEAN_MOTION":15.02539457,"ECCENTRICITY":0.00015166,"INCLINATION":43.0045,"RA_OF_ASC_NODE":30.6791,"ARG_OF_PERICENTER":270.4453,"MEAN_ANOMALY":89.6216,"EPHEMERIS_TYPE":0,"CLASSIFICATION_TYPE":"U","NORAD_CAT_ID":58185,"ELEMENT_SET_NO":999,"REV_AT_EPOCH":10424,"BSTAR":5.807773e-5,"MEAN_MOTION_DOT":5.81e-6,"MEAN_MOTION_DDOT":0},{"OBJECT_NAME":"STARLINK-30755","OBJECT_ID":"2023-167M","EPOCH":"2025-09-13T01:31:54.118848","MEAN_MOTION":15.02548531,"ECCENTRICITY":0.00016119,"INCLINATION":43.0061,"RA_OF_ASC_NODE":31.275,"ARG_OF_PERICENTER":279.2131,"MEAN_ANOMALY":80.8529,"EPHEMERIS_TYPE":0,"CLASSIFICATION_TYPE":"U","NORAD_CAT_ID":58186,"ELEMENT_SET_NO":999,"REV_AT_EPOCH":10423,"BSTAR":-2.8725221e-5,"MEAN_MOTION_DOT":-5.92e-6,"MEAN_MOTION_DDOT":0},{"OBJECT_NAME":"STARLINK-30760","OBJECT_ID":"2023-167N","EPOCH":"2025-09-13T02:18:04.840704","MEAN_MOTION":15.02562233,"ECCENTRICITY":0.00016095,"INCLINATION":43.0045,"RA_OF_ASC_NODE":30.6529,"ARG_OF_PERICENTER":273.6597,"MEAN_ANOMALY":86.4062,"EPHEMERIS_TYPE":0,"CLASSIFICATION_TYPE":"U","NORAD_CAT_ID":58187,"ELEMENT_SET_NO":999,"REV_AT_EPOCH":10424,"BSTAR":-0.00037816979,"MEAN_MOTION_DOT":-5.312e-5,"MEAN_MOTION_DDOT":0},{"OBJECT_NAME":"STARLINK-30826","OBJECT_ID":"2023-167P","EPOCH":"2025-09-13T01:30:19.314720","MEAN_MOTION":15.02511318,"ECCENTRICITY":0.00017458,"INCLINATION":43.0058,"RA_OF_ASC_NODE":31.2699,"ARG_OF_PERICENTER":272.4133,"MEAN_ANOMALY":87.6509,"EPHEMERIS_TYPE":0,"CLASSIFICATION_TYPE":"U","NORAD_CAT_ID":58188,"ELEMENT_SET_NO":999,"REV_AT_EPOCH":10423,"BSTAR":0.00034221713,"MEAN_MOTION_DOT":4.419e-5,"MEAN_MOTION_DDOT":0},{"OBJECT_NAME":"STARLINK-30796","OBJECT_ID":"2023-167Q","EPOCH":"2025-09-13T01:35:06.022752","MEAN_MOTION":15.02537774,"ECCENTRICITY":0.00014329,"INCLINATION":43.0048,"RA_OF_ASC_NODE":31.2894,"ARG_OF_PERICENTER":265.2787,"MEAN_ANOMALY":94.7891,"EPHEMERIS_TYPE":0,"CLASSIFICATION_TYPE":"U","NORAD_CAT_ID":58189,"ELEMENT_SET_NO":999,"REV_AT_EPOCH":10423,"BSTAR":8.2279699e-5,"MEAN_MOTION_DOT":9.08e-6,"MEAN_MOTION_DDOT":0},{"OBJECT_NAME":"STARLINK-30820","OBJECT_ID":"2023-167R","EPOCH":"2025-09-13T01:39:53.876448","MEAN_MOTION":15.02531958,"ECCENTRICITY":0.00012746,"INCLINATION":43.0044,"RA_OF_ASC_NODE":31.3146,"ARG_OF_PERICENTER":266.9123,"MEAN_ANOMALY":93.1573,"EPHEMERIS_TYPE":0,"CLASSIFICATION_TYPE":"U","NORAD_CAT_ID":58190,"ELEMENT_SET_NO":999,"REV_AT_EPOCH":10423,"BSTAR":6.1952069e-5,"MEAN_MOTION_DOT":6.33e-6,"MEAN_MOTION_DDOT":0},{"OBJECT_NAME":"STARLINK-30785","OBJECT_ID":"2023-167S","EPOCH":"2025-09-12T17:22:04.680192","MEAN_MOTION":15.02536952,"ECCENTRICITY":0.00014851,"INCLINATION":43.0065,"RA_OF_ASC_NODE":33.0252,"ARG_OF_PERICENTER":270.9309,"MEAN_ANOMALY":89.1363,"EPHEMERIS_TYPE":0,"CLASSIFICATION_TYPE":"U","NORAD_CAT_ID":58191,"ELEMENT_SET_NO":999,"REV_AT_EPOCH":10418,"BSTAR":6.0623738e-5,"MEAN_MOTION_DOT":6.15e-6,"MEAN_MOTION_DDOT":0},{"OBJECT_NAME":"STARLINK-30807","OBJECT_ID":"2023-167T","EPOCH":"2025-09-13T01:25:30.789696","MEAN_MOTION":15.02537398,"ECCENTRICITY":0.00014536,"INCLINATION":43.0054,"RA_OF_ASC_NODE":31.242,"ARG_OF_PERICENTER":271.8654,"MEAN_ANOMALY":88.2022,"EPHEMERIS_TYPE":0,"CLASSIFICATION_TYPE":"U","NORAD_CAT_ID":58192,"ELEMENT_SET_NO":999,"REV_AT_EPOCH":10423,"BSTAR":1.3703439e-5,"MEAN_MOTION_DOT":-1.9e-7,"MEAN_MOTION_DDOT":0},{"OBJECT_NAME":"STARLINK-30822","OBJECT_ID":"2023-167U","EPOCH":"2025-09-12T15:41:33.357984","MEAN_MOTION":15.02538336,"ECCENTRICITY":0.00016458,"INCLINATION":43.0043,"RA_OF_ASC_NODE":33.3575,"ARG_OF_PERICENTER":270.5575,"MEAN_ANOMALY":89.5079,"EPHEMERIS_TYPE":0,"CLASSIFICATION_TYPE":"U","NORAD_CAT_ID":58193,"ELEMENT_SET_NO":999,"REV_AT_EPOCH":10417,"BSTAR":-4.191022e-6,"MEAN_MOTION_DOT":-2.6e-6,"MEAN_MOTION_DDOT":0},{"OBJECT_NAME":"STARLINK-30830","OBJECT_ID":"2023-167V","EPOCH":"2025-09-12T15:35:09.966624","MEAN_MOTION":15.02536703,"ECCENTRICITY":0.0001384,"INCLINATION":43.0045,"RA_OF_ASC_NODE":33.3087,"ARG_OF_PERICENTER":272.3343,"MEAN_ANOMALY":87.7341,"EPHEMERIS_TYPE":0,"CLASSIFICATION_TYPE":"U","NORAD_CAT_ID":58194,"ELEMENT_SET_NO":999,"REV_AT_EPOCH":10417,"BSTAR":-3.2474768e-5,"MEAN_MOTION_DOT":-6.42e-6,"MEAN_MOTION_DDOT":0},{"OBJECT_NAME":"STARLINK-30827","OBJECT_ID":"2023-167W","EPOCH":"2025-09-12T15:31:58.139616","MEAN_MOTION":15.02543145,"ECCENTRICITY":0.00013365,"INCLINATION":43.004,"RA_OF_ASC_NODE":33.3103,"ARG_OF_PERICENTER":273.9843,"MEAN_ANOMALY":86.0846,"EPHEMERIS_TYPE":0,"CLASSIFICATION_TYPE":"U","NORAD_CAT_ID":58195,"ELEMENT_SET_NO":999,"REV_AT_EPOCH":10417,"BSTAR":0.00013588861,"MEAN_MOTION_DOT":1.633e-5,"MEAN_MOTION_DDOT":0}]
